NORAD_CAT_ID,OBJECT_NAME,OBJECT_TYPE,EPOCH,MEAN_MOTION,ECCENTRICITY,INCLINATION,RA_OF_ASC_NODE,ARG_OF_PERICENTER,MEAN_ANOMALY,BSTAR,MEAN_MOTION_DOT,MEAN_MOTION_DDOT,TLE_LINE0,TLE_LINE1,TLE_LINE2,SEMIMAJOR_AXIS,PERIOD,APOGEE,PERIGEE,DECAYED
53789.0,STARLINK-4666,PAYLOAD,2024-08-01 11:34:25,15.08851806,0.0001914,53.2178,20.9393,93.8778,266.2433,0.00032692,4.92e-05,0.0,0 STARLINK-4666,1 53789U 22111S   24214.48224093  .00004920  00000-0  32692-3 0  9994,2 53789  53.2178  20.9393 0001914  93.8778 266.2433 15.08851806105344,6917.844,95.437,541.033,538.385,0.0
53789.0,STARLINK-4666,PAYLOAD,2024-08-01 17:55:58,15.08853811,0.0001399,53.2176,19.75,96.6546,263.4605,0.00088797,0.00013878,0.0,0 STARLINK-4666,1 53789U 22111S   24214.74720255  .00013878  00000-0  88797-3 0  9993,2 53789  53.2176  19.7500 0001399  96.6546 263.4605 15.08853811105381,6917.838,95.437,540.671,538.735,0.0
53789.0,STARLINK-4666,PAYLOAD,2024-08-02 03:28:16,15.08875688,0.0001362,53.2179,17.9657,93.9457,266.1691,0.0011456,0.00018009,0.0,0 STARLINK-4666,1 53789U 22111S   24215.14463366  .00018009  00000-0  11456-2 0  9993,2 53789  53.2179  17.9657 0001362  93.9457 266.1691 15.08875688104647,6917.771,95.435,540.579,538.694,0.0
53789.0,STARLINK-4666,PAYLOAD,2024-08-02 14:35:59,15.08826811,0.0001506,53.2176,15.8839,80.8045,279.3117,-0.00048341,-7.97e-05,0.0,0 STARLINK-4666,1 53789U 22111S   24215.60832356 -.00007970  00000-0 -48341-3 0  9994,2 53789  53.2176  15.8839 0001506  80.8045 279.3117 15.08826811105511,6917.921,95.438,540.828,538.744,0.0
53789.0,STARLINK-4666,PAYLOAD,2024-08-02 17:46:45,15.08829016,0.0001425,53.2174,15.2897,72.8671,287.2477,-0.00011906,-2.182e-05,0.0,0 STARLINK-4666,1 53789U 22111S   24215.74080460 -.00002182  00000-0 -11906-3 0  9997,2 53789  53.2174  15.2897 0001425  72.8671 287.2477 15.08829016104733,6917.914,95.438,540.765,538.793,0.0
53789.0,STARLINK-4666,PAYLOAD,2024-08-03 03:19:04,15.08842873,0.0001493,53.2171,13.5052,77.983,282.1329,0.0011966,0.00018809,0.0,0 STARLINK-4666,1 53789U 22111S   24216.13824691  .00018809  00000-0  11966-2 0  9999,2 53789  53.2171  13.5052 0001493  77.9830 282.1329 15.08842873104794,6917.872,95.437,540.769,538.704,0.0
53789.0,STARLINK-4666,PAYLOAD,2024-08-03 14:26:46,15.08839738,0.0001633,53.2183,11.4275,95.3258,264.792,0.00056809,8.765e-05,0.0,0 STARLINK-4666,1 53789U 22111S   24216.60193010  .00008765  00000-0  56809-3 0  9991,2 53789  53.2183  11.4275 0001633  95.3258 264.7920 15.08839738105661,6917.881,95.438,540.876,538.616,0.0
53789.0,STARLINK-4666,PAYLOAD,2024-08-03 20:48:18,15.08856581,0.0001528,53.2183,10.236,93.6729,266.4438,0.0010852,0.00017033,0.0,0 STARLINK-4666,1 53789U 22111S   24216.86688553  .00017033  00000-0  10852-2 0  9995,2 53789  53.2183  10.2360 0001528  93.6729 266.4438 15.08856581104904,6917.83,95.437,540.752,538.638,0.0
53789.0,STARLINK-4666,PAYLOAD,2024-08-04 14:17:33,15.08852186,0.0001427,53.2167,6.965,94.8681,265.2474,0.00078254,0.00012192,0.0,0 STARLINK-4666,1 53789U 22111S   24217.59552643  .00012192  00000-0  78254-3 0  9998,2 53789  53.2167   6.9650 0001427  94.8681 265.2474 15.08852186105813,6917.843,95.437,540.695,538.721,0.0
53789.0,STARLINK-4666,PAYLOAD,2024-08-04 19:03:42,15.08858935,0.000136,53.2165,6.0716,92.5219,267.5929,0.0021712,0.00034454,0.0,0 STARLINK-4666,1 53789U 22111S   24217.79424613  .00034454  00000-0  21712-2 0  9996,2 53789  53.2165   6.0716 0001360  92.5219 267.5929 15.08858935105046,6917.823,95.436,540.628,538.747,0.0
53789.0,STARLINK-4666,PAYLOAD,2024-08-05 17:19:07,15.08826996,0.0001329,53.2163,1.9086,82.1199,277.9944,0.00065333,0.00010121,0.0,0 STARLINK-4666,1 53789U 22111S   24218.72161165  .00010121  00000-0  65333-3 0  9993,2 53789  53.2163   1.9086 0001329  82.1199 277.9944 15.08826996105184,6917.92,95.438,540.705,538.866,0.0
53789.0,STARLINK-4666,PAYLOAD,2024-08-06 15:34:31,15.08834483,0.000138,53.2172,357.7454,84.9235,275.1914,0.00018127,2.598e-05,0.0,0 STARLINK-4666,1 53789U 22111S   24219.64897791  .00002598  00000-0  18127-3 0  9994,2 53789  53.2172 357.7454 0001380  84.9235 275.1914 15.08834483106125,6917.897,95.438,540.717,538.808,0.0
53789.0,STARLINK-4666,PAYLOAD,2024-08-06 18:45:17,15.08841821,0.0001493,53.2167,357.1501,88.003,272.1133,0.00033908,5.113e-05,0.0,0 STARLINK-4666,1 53789U 22111S   24219.78145509  .00005113  00000-0  33908-3 0  9992,2 53789  53.2167 357.1501 0001493  88.0030 272.1133 15.08841821105346,6917.875,95.437,540.773,538.707,0.0
53789.0,STARLINK-4666,PAYLOAD,2024-08-07 15:25:18,15.08848781,0.0001482,53.2175,353.2837,83.2719,276.8441,0.00039875,6.065e-05,0.0,0 STARLINK-4666,1 53789U 22111S   24220.64257495  .00006065  00000-0  39875-3 0  9993,2 53789  53.2175 353.2837 0001482  83.2719 276.8441 15.08848781106271,6917.854,95.437,540.744,538.693,0.0
53789.0,STARLINK-4666,PAYLOAD,2024-08-08 13:40:42,15.0884155,0.0001309,53.2167,349.1191,80.6568,279.4573,0.00020184,2.926e-05,0.0,0 STARLINK-4666,1 53789U 22111S   24221.56993454  .00002926  00000-0  20184-3 0  9992,2 53789  53.2167 349.1191 0001309  80.6568 279.4573 15.08841550106418,6917.876,95.437,540.646,538.835,0.0
53789.0,STARLINK-4666,PAYLOAD,2024-08-08 15:16:05,15.08845531,0.0001309,53.2169,348.8218,80.1095,280.0045,5.7586e-05,6.29e-06,0.0,0 STARLINK-4666,1 53789U 22111S   24221.63617217  .00000629  00000-0  57586-4 0  9995,2 53789  53.2169 348.8218 0001309  80.1095 280.0045 15.08845531105623,6917.863,95.437,540.634,538.823,0.0
53789.0,STARLINK-4666,PAYLOAD,2024-08-09 13:31:29,15.08841408,0.0001226,53.2177,344.6558,89.2542,270.859,5.2325e-05,5.45e-06,0.0,0 STARLINK-4666,1 53789U 22111S   24222.56353217  .00000545  00000-0  52325-4 0  9998,2 53789  53.2177 344.6558 0001226  89.2542 270.8590 15.08841408106563,6917.876,95.437,540.589,538.893,0.0
53789.0,STARLINK-4666,PAYLOAD,2024-08-09 18:17:38,15.08841884,0.0001144,53.2169,343.7676,77.3244,282.7876,5.4201e-05,5.75e-06,0.0,0 STARLINK-4666,1 53789U 22111S   24222.76225194  .00000575  00000-0  54201-4 0  9990,2 53789  53.2169 343.7676 0001144  77.3244 282.7876 15.08841884105792,6917.875,95.437,540.531,538.948,0.0
53789.0,STARLINK-4666,PAYLOAD,2024-08-10 11:46:53,15.08835315,0.0001235,53.2172,340.4967,69.9957,290.1168,5.5546e-05,5.96e-06,0.0,0 STARLINK-4666,1 53789U 22111S   24223.49089621  .00000596  00000-0  55546-4 0  9990,2 53789  53.2172 340.4967 0001235  69.9957 290.1168 15.08835315105904,6917.895,95.438,540.614,538.905,0.0
53789.0,STARLINK-4666,PAYLOAD,2024-08-10 13:22:16,15.08835737,0.0001239,53.2174,340.1994,70.3829,289.7296,5.5078e-05,5.89e-06,0.0,0 STARLINK-4666,1 53789U 22111S   24223.55713591  .00000589  00000-0  55078-4 0  9999,2 53789  53.2174 340.1994 0001239  70.3829 289.7296 15.08835737106715,6917.893,95.438,540.616,538.901,0.0
53789.0,STARLINK-4666,PAYLOAD,2024-08-10 18:08:25,15.08840533,0.0001244,53.2174,339.3066,68.3256,291.7869,8.452e-05,1.058e-05,0.0,0 STARLINK-4666,1 53789U 22111S   24223.75585230  .00001058  00000-0  84520-4 0  9994,2 53789  53.2174 339.3066 0001244  68.3256 291.7869 15.08840533106744,6917.879,95.438,540.604,538.883,0.0
53789.0,STARLINK-4666,PAYLOAD,2024-08-11 00:29:56,15.08863358,0.0001407,53.2204,338.1262,99.3237,260.7914,0.00019423,2.806e-05,0.0,0 STARLINK-4666,1 53789U 22111S   24224.02079267  .00002806  00000-0  19423-3 0  9994,2 53789  53.2204 338.1262 0001407  99.3237 260.7914 15.08863358105989,6917.809,95.436,540.647,538.701,0.0
53789.0,STARLINK-4666,PAYLOAD,2024-08-11 08:26:55,15.08813283,0.0001643,53.2166,336.6348,86.8054,273.3126,-0.00025923,-4.408e-05,0.0,0 STARLINK-4666,1 53789U 22111S   24224.35202933 -.00004408  00000-0 -25923-3 0  9992,2 53789  53.2166 336.6348 0001643  86.8054 273.3126 15.08813283106038,6917.962,95.439,540.964,538.69,0.0
53789.0,STARLINK-4666,PAYLOAD,2024-08-11 14:48:26,15.08835796,0.0001043,53.2161,335.4423,51.1472,308.9614,5.8822e-05,6.48e-06,0.0,0 STARLINK-4666,1 53789U 22111S   24224.61697599  .00000648  00000-0  58822-4 0  9992,2 53789  53.2161 335.4423 0001043  51.1472 308.9614 15.08835796106071,6917.893,95.438,540.48,539.037,0.0
53789.0,STARLINK-4666,PAYLOAD,2024-08-12 00:20:44,15.088519,0.0002573,53.2176,333.6559,70.3054,289.8215,0.00016096,2.275e-05,0.0,0 STARLINK-4666,1 53789U 22111S   24225.01440708  .00002275  00000-0  16096-3 0  9999,2 53789  53.2176 333.6559 0002573  70.3054 289.8215 15.08851900106131,6917.844,95.437,541.489,537.929,0.0
53789.0,STARLINK-4666,PAYLOAD,2024-08-12 08:17:41,15.0883007,0.0001533,53.219,332.177,78.9531,281.1633,-0.00024961,-4.257e-05,0.0,0 STARLINK-4666,1 53789U 22111S   24225.34561752 -.00004257  00000-0 -24961-3 0  9992,2 53789  53.2190 332.1770 0001533  78.9531 281.1633 15.08830070106184,6917.911,95.438,540.836,538.715,0.0
53789.0,STARLINK-4666,PAYLOAD,2024-08-12 16:14:35,15.08868819,0.0001473,53.2175,330.6843,82.1007,278.0153,0.00041703,6.36e-05,0.0,0 STARLINK-4666,1 53789U 22111S   24225.67679517  .00006360  00000-0  41703-3 0  9995,2 53789  53.2175 330.6843 0001473  82.1007 278.0153 15.08868819106239,6917.792,95.436,540.676,538.638,0.0
53789.0,STARLINK-4666,PAYLOAD,2024-08-13 12:54:40,15.08764886,0.000213,53.2161,326.822,89.6613,270.4623,-0.00076698,-0.00012449,0.0,0 STARLINK-4666,1 53789U 22111S   24226.53797130 -.00012449  00000-0 -76698-3 0  9991,2 53789  53.2161 326.8220 0002130  89.6613 270.4623 15.08764886106367,6918.11,95.442,541.449,538.501,0.0
53789.0,STARLINK-4666,PAYLOAD,2024-08-14 00:02:22,15.08775513,0.0003787,53.214,324.7385,89.0449,271.0977,-0.0011271,-0.00018153,0.0,0 STARLINK-4666,1 53789U 22111S   24227.00165181 -.00018153  00000-0 -11271-2 0  9992,2 53789  53.2140 324.7385 0003787  89.0449 271.0977 15.08775513106439,6918.078,95.442,542.562,537.323,0.0
53789.0,STARLINK-4666,PAYLOAD,2024-08-14 06:23:53,15.08818343,4.1e-05,53.2195,323.5531,86.7046,273.3993,7.4602e-05,8.99e-06,0.0,0 STARLINK-4666,1 53789U 22111S   24227.26659482  .00000899  00000-0  74602-4 0  9997,2 53789  53.2195 323.5531 0000410  86.7046 273.3993 15.08818343106472,6917.947,95.439,540.095,539.528,0.0
